GEOSCAN-3 (RS92S3)
1 64893U 25155T   26181.55135953  .00017427  00000-0  50103-3 0  9995
2 64893  97.4541 151.5878 0008216 124.2990 235.9032 15.35837648 82904
INNOSAT3 (RS92S0)
1 64894U 25155U   26181.53129801  .00039594  00000-0  84403-3 0  9998
2 64894  97.4488 153.3550 0007986 121.7578 238.4449 15.44776915 83022
KNACKSAT-2
1 67683U 98067XZ  26181.35012679  .00038944  00000-0  45592-3 0  9997
2 67683  51.6260 228.2118 0008493 273.6004  86.4018 15.61112165 22338
