OBJECT_NAME,OBJECT_ID,EPOCH,MEAN_MOTION,ECCENTRICITY,INCLINATION,RA_OF_ASC_NODE,ARG_OF_PERICENTER,MEAN_ANOMALY,EPHEMERIS_TYPE,CLASSIFICATION_TYPE,NORAD_CAT_ID,ELEMENT_SET_NO,REV_AT_EPOCH,BSTAR,MEAN_MOTION_DOT,MEAN_MOTION_DDOT
GEOSCAN 3 (RS92S3),2025-155T,2026-06-30T13:13:57.463392,15.35837648,.00082164,97.4541,151.5878,124.2990,235.9032,0,U,64893,999,8290,.50103449E-3,.17427E-3,0
INNOSAT 3 (RS92S0),2025-155U,2026-06-30T12:45:04.148064,15.44776915,.00079863,97.4488,153.3550,121.7578,238.4449,0,U,64894,999,8302,.84403214E-3,.39594E-3,0
KNACKSAT-2,1998-067XZ,2026-06-30T08:24:10.954656,15.61112165,.00084933,51.6260,228.2118,273.6004,86.4018,0,U,67683,999,2233,.45592226E-3,.38944E-3,0
